NORAD_CAT_ID,OBJECT_NAME,OBJECT_TYPE,EPOCH,MEAN_MOTION,ECCENTRICITY,INCLINATION,RA_OF_ASC_NODE,ARG_OF_PERICENTER,MEAN_ANOMALY,BSTAR,MEAN_MOTION_DOT,MEAN_MOTION_DDOT,TLE_LINE0,TLE_LINE1,TLE_LINE2,SEMIMAJOR_AXIS,PERIOD,APOGEE,PERIGEE,DECAYED
52611.0,STARLINK-3980,PAYLOAD,2022-09-06 22:00:00,15.08823477,0.0001815,53.2135,269.237,50.2958,285.9762,0.0010897,0.00017089,0.0,0 STARLINK-3980,1 52611U 22052P   22249.91667824  .00017089  00000-0  10897-2 0  9990,2 52611  53.2135 269.2370 0001815  50.2958 285.9762 15.08823477  1307,6917.931,95.439,541.0509999999998,538.54,0.0
52611.0,STARLINK-3980,PAYLOAD,2022-09-07 14:00:01,15.08822325,0.0002109,53.2133,266.2457,46.44300000000001,312.9885,0.00062886,9.73e-05,0.0,0 STARLINK-3980,1 52611U 22052P   22250.58334491  .00009730  00000-0  62886-3 0  9996,2 52611  53.2133 266.2457 0002109  46.4430 312.9885 15.08822325  1305,6917.934,95.439,541.258,538.34,0.0
52611.0,STARLINK-3980,PAYLOAD,2022-09-07 20:00:01,15.08814386,0.0001996999999999,53.2138,265.1219,51.0072,227.1754,0.0014048,0.00022125,0.0,0 STARLINK-3980,1 52611U 22052P   22250.83335648  .00022125  00000-0  14048-2 0  9998,2 52611  53.2138 265.1219 0001997  51.0072 227.1754 15.08814386 18096,6917.959,95.439,541.205,538.442,0.0
52611.0,STARLINK-3980,PAYLOAD,2022-09-07 22:00:00,15.08802707,0.0001972,53.2136,264.7475,52.5902,318.4273,0.0032665999999999,0.00052031,0.0,0 STARLINK-3980,1 52611U 22052P   22250.91667824  .00052031  00000-0  32666-2 0  9996,2 52611  53.2136 264.7475 0001972  52.5902 318.4273 15.08802707  1304,6917.994000000002,95.44,541.224,538.495,0.0
52611.0,STARLINK-3980,PAYLOAD,2022-09-08 14:00:01,15.08842578,0.0002190999999999,53.2134,261.7561,47.6844,346.4958,0.00013587,1.875e-05,0.0,0 STARLINK-3980,1 52611U 22052P   22251.58334491  .00001875  00000-0  13587-3 0  9993,2 52611  53.2134 261.7561 0002191  47.6844 346.4958 15.08842578  1300,6917.873000000001,95.437,541.253,538.222,0.0
52611.0,STARLINK-3980,PAYLOAD,2022-09-08 20:00:01,15.08828446,0.0002049,53.2138,260.6324,52.5682,260.3203,0.0020513,0.00032499,0.0,0 STARLINK-3980,1 52611U 22052P   22251.83334491  .00032499  00000-0  20513-2 0  9993,2 52611  53.2138 260.6324 0002049  52.5682 260.3203 15.08828446 18242,6917.916,95.438,541.198,538.363,0.0
52611.0,STARLINK-3980,PAYLOAD,2022-09-08 22:00:00,15.0882404,0.0002012,53.2137,260.2579,53.6053,352.1839,0.0030475,0.00048526,0.0,0 STARLINK-3980,1 52611U 22052P   22251.91667824  .00048526  00000-0  30475-2 0  9997,2 52611  53.2137 260.2579 0002012  53.6053 352.1839 15.08824040  1303,6917.929,95.439,541.186,538.4019999999998,0.0
52611.0,STARLINK-3980,PAYLOAD,2022-09-09 14:00:01,15.08837357,0.0002133,53.2135,257.2663,47.2618,21.7186,-0.00024157,-4.131e-05,0.0,0 STARLINK-3980,1 52611U 22052P   22252.58334491 -.00004131  00000-0 -24157-3 0  9999,2 52611  53.2135 257.2663 0002133  47.2618  21.7186 15.08837357  1300,6917.888000000001,95.438,541.229,538.278,0.0
52611.0,STARLINK-3980,PAYLOAD,2022-09-09 22:00:00,15.08815157,0.0001965,53.2137,255.7682,53.6546,26.9229,0.0030699,0.00048876,0.0,0 STARLINK-3980,1 52611U 22052P   22252.91667824  .00048876  00000-0  30699-2 0  9994,2 52611  53.2137 255.7682 0001965  53.6546  26.9229 15.08815157  1308,6917.956,95.439,541.181,538.462,0.0
52611.0,STARLINK-3980,PAYLOAD,2022-09-10 04:00:00,15.08857244,0.0002059,53.214,254.6469,52.3625,306.8962,-0.001563,-0.0002508999999999,0.0,0 STARLINK-3980,1 52611U 22052P   22253.16667824 -.00025090  00000-0 -15630-2 0  9995,2 52611  53.2140 254.6469 0002059  52.3625 306.8962 15.08857244 18442,6917.828,95.436,541.117,538.268,0.0
52611.0,STARLINK-3980,PAYLOAD,2022-09-10 14:00:01,15.08858395,0.0002119,53.2135,252.7765,48.8821,54.8784,-0.00096416,-0.00015608,0.0,0 STARLINK-3980,1 52611U 22052P   22253.58334491 -.00015608  00000-0 -96416-3 0  9998,2 52611  53.2135 252.7765 0002119  48.8821  54.8784 15.08858395  1306,6917.824000000001,95.436,541.155,538.2230000000002,0.0
52611.0,STARLINK-3980,PAYLOAD,2022-09-10 20:00:01,15.08837693,0.0001916,53.2137,251.6529,53.5244,328.9527,-8.803799999999999e-05,-1.689e-05,0.0,0 STARLINK-3980,1 52611U 22052P   22253.83334491 -.00001689  00000-0 -88038-4 0  9992,2 52611  53.2137 251.6529 0001916  53.5244 328.9527 15.08837693 18542,6917.887,95.438,541.078,538.427,0.0
52611.0,STARLINK-3980,PAYLOAD,2022-09-10 22:00:00,15.08832574,0.0001909,53.2138,251.2785,54.6293,60.7488,0.00052628,8.096e-05,0.0,0 STARLINK-3980,1 52611U 22052P   22253.91667824  .00008096  00000-0  52628-3 0  9992,2 52611  53.2138 251.2785 0001909  54.6293  60.7488 15.08832574  1307,6917.903,95.438,541.089,538.447,0.0
52611.0,STARLINK-3980,PAYLOAD,2022-09-11 14:00:01,15.08849876,0.0002032,53.2134,248.2868,49.69300000000001,88.8619,-0.00097653,-0.00015801,0.0,0 STARLINK-3980,1 52611U 22052P   22254.58334491 -.00015801  00000-0 -97653-3 0  9998,2 52611  53.2134 248.2868 0002032  49.6930  88.8619 15.08849876  1301,6917.85,95.437,541.121,538.309,0.0
52611.0,STARLINK-3980,PAYLOAD,2022-09-11 22:00:00,15.08839888,0.0001879,53.2136,246.789,55.9344,94.2223,0.0003938,5.985e-05,0.0,0 STARLINK-3980,1 52611U 22052P   22254.91667824  .00005985  00000-0  39380-3 0  9997,2 52611  53.2136 246.7890 0001879  55.9344  94.2223 15.08839888  1302,6917.880999999999,95.438,541.0459999999998,538.446,0.0
52611.0,STARLINK-3980,PAYLOAD,2022-09-12 04:00:00,15.08853692,0.0001937,53.2137,245.6679,52.6176,16.2396,-0.0029545,-0.00047021,0.0,0 STARLINK-3980,1 52611U 22052P   22255.16667824 -.00047021  00000-0 -29545-2 0  9995,2 52611  53.2137 245.6679 0001937  52.6176  16.2396 15.08853692 18748,6917.839,95.437,541.044,538.364,0.0
52611.0,STARLINK-3980,PAYLOAD,2022-09-12 12:00:00,15.08825944,0.0001989,53.2133,244.1718,48.0762,32.3712,0.0014035,0.00022111,0.0,0 STARLINK-3980,1 52611U 22052P   22255.50001157  .00022111  00000-0  14035-2 0  9993,2 52611  53.2133 244.1718 0001989  48.0762  32.3712 15.08825944 18794,6917.9230000000025,95.438,541.164,538.4119999999998,0.0
52611.0,STARLINK-3980,PAYLOAD,2022-09-12 14:00:01,15.08846604,0.000196,53.2133,243.7972,50.1276,123.2108,-0.0011575,-0.00018666,0.0,0 STARLINK-3980,1 52611U 22052P   22255.58334491 -.00018666  00000-0 -11575-2 0  9999,2 52611  53.2133 243.7972 0001960  50.1276 123.2108 15.08846604  1308,6917.86,95.437,541.081,538.369,0.0
52611.0,STARLINK-3980,PAYLOAD,2022-09-12 22:00:00,15.08834662,0.0001838,53.2135,242.2995,56.3497,128.5829,0.0011568,0.00018168,0.0,0 STARLINK-3980,1 52611U 22052P   22255.91667824  .00018168  00000-0  11568-2 0  9992,2 52611  53.2135 242.2995 0001838  56.3497 128.5829 15.08834662  1305,6917.897,95.438,541.033,538.49,0.0
52611.0,STARLINK-3980,PAYLOAD,2022-09-13 04:00:00,15.0885861,0.0001915,53.2136,241.1785,52.2558,51.3754,-0.0035351,-0.00056141,0.0,0 STARLINK-3980,1 52611U 22052P   22256.16667824 -.00056141  00000-0 -35351-2 0  9991,2 52611  53.2136 241.1785 0001915  52.2558  51.3754 15.08858610 18891,6917.824000000001,95.436,541.013,538.364,0.0
52611.0,STARLINK-3980,PAYLOAD,2022-09-13 14:00:01,15.08846917,0.0001911,53.2135,239.3077,49.4581,158.6558,-0.0013944,-0.00022416,0.0,0 STARLINK-3980,1 52611U 22052P   22256.58334491 -.00022416  00000-0 -13944-2 0  9990,2 52611  53.2135 239.3077 0001911  49.4581 158.6558 15.08846917  1301,6917.859,95.437,541.0459999999998,538.4019999999998,0.0
52611.0,STARLINK-3980,PAYLOAD,2022-09-13 16:00:00,15.08842976,0.0001855,53.2144,238.9335,50.8439,250.1695,-0.00095506,-0.00015457,0.0,0 STARLINK-3980,1 52611U 22052P   22256.66667824 -.00015457  00000-0 -95506-3 0  9990,2 52611  53.2144 238.9335 0001855  50.8439 250.1695 15.08842976 18970,6917.871,95.437,541.02,538.453,0.0
52611.0,STARLINK-3980,PAYLOAD,2022-09-13 22:00:00,15.08840091,0.0001808,53.2137,237.8101,55.4087,164.2934,2.8441e-05,1.65e-06,0.0,0 STARLINK-3980,1 52611U 22052P   22256.91667824  .00000165  00000-0  28441-4 0  9991,2 52611  53.2137 237.8101 0001808  55.4087 164.2934 15.08840091  1305,6917.88,95.438,540.996,538.494,0.0
52611.0,STARLINK-3980,PAYLOAD,2022-09-14 14:00:01,15.087837699999998,0.0001817,53.2163,234.8207,57.0611,185.8182,0.0045115,0.00072137,0.0,0 STARLINK-3980,1 52611U 22052P   22257.58334491  .00072137  00000-0  45115-2 0  9999,2 52611  53.2163 234.8207 0001817  57.0611 185.8182 15.08783770  1303,6918.052,95.441,541.174,538.66,0.0
52611.0,STARLINK-3980,PAYLOAD,2022-09-14 20:00:01,15.08811039,0.0001793,53.214,233.6949,52.8767,108.6882,0.002926,0.0004655,0.0,0 STARLINK-3980,1 52611U 22052P   22257.83334491  .00046550  00000-0  29260-2 0  9990,2 52611  53.2140 233.6949 0001793  52.8767 108.6882 15.08811039 19147,6917.969,95.439,541.0740000000002,538.594,0.0
52611.0,STARLINK-3980,PAYLOAD,2022-09-14 22:00:00,15.08825007,0.0001824,53.2142,233.3208,54.7236,199.7307,0.0020725,0.00032837,0.0,0 STARLINK-3980,1 52611U 22052P   22257.91667824  .00032837  00000-0  20725-2 0  9998,2 52611  53.2142 233.3208 0001824  54.7236 199.7307 15.08825007  1303,6917.926,95.439,541.053,538.529,0.0
52611.0,STARLINK-3980,PAYLOAD,2022-09-15 14:00:01,15.08865855,0.0001875,53.2144,230.3289,48.2651,229.3869,-0.0035118,-0.00055786,0.0,0 STARLINK-3980,1 52611U 22052P   22258.58334491 -.00055786  00000-0 -35118-2 0  9995,2 52611  53.2144 230.3289 0001875  48.2651 229.3869 15.08865855  1304,6917.801,95.436,540.9630000000002,538.369,0.0
52611.0,STARLINK-3980,PAYLOAD,2022-09-15 15:57:14,15.08851529,0.0001946,53.2145,229.9633,52.0949,308.0219,0.00038571,5.858e-05,0.0,0 STARLINK-3980,1 52611U 22052P   22258.66475429  .00005858  00000-0  38571-3 0  9991,2 52611  53.2145 229.9633 0001946  52.0949 308.0219 15.08851529 18905,6917.845,95.437,541.056,538.364,0.0
52611.0,STARLINK-3980,PAYLOAD,2022-09-16 01:29:33,15.08842195,0.0001843,53.2146,228.1793,55.5178,304.5988,0.00017843,2.553e-05,0.0,0 STARLINK-3980,1 52611U 22052P   22259.06219803  .00002553  00000-0  17843-3 0  9996,2 52611  53.2146 228.1793 0001843  55.5178 304.5988 15.08842195 19333,6917.874,95.437,541.014,538.464,0.0
